[
    {
        "Altitude(m)": 562519.3013093043,
        "Argument of Periapsis(deg)": 0.033114955553567506,
        "Eccentricity": 0.0,
        "Inclination(deg)": 53.0,
        "Latitude(deg)": -30.087609514536336,
        "Longitude(deg)": 160.27683168921962,
        "Mean Anomaly(deg)": -38.63283566211197,
        "RAAN(deg)": 289.9507168426401,
        "Satellite Name": "Starlink Shell 1 1292",
        "Satellite Number": 1292,
        "Semi-Major Axis(m)": 6931778.249405717,
        "Time(s)": 950
    },
    {
        "Altitude(m)": 562344.1346043682,
        "Argument of Periapsis(deg)": 0.03346353403307874,
        "Eccentricity": 0.0,
        "Inclination(deg)": 53.0,
        "Latitude(deg)": -29.634630463971437,
        "Longitude(deg)": 160.73457528796845,
        "Mean Anomaly(deg)": -38.00600445855533,
        "RAAN(deg)": 289.9501980725626,
        "Satellite Name": "Starlink Shell 1 1292",
        "Satellite Number": 1292,
        "Semi-Major Axis(m)": 6931778.249405717,
        "Time(s)": 960
    },
    {
        "Altitude(m)": 562169.1849233172,
        "Argument of Periapsis(deg)": 0.03381211251258998,
        "Eccentricity": 0.0,
        "Inclination(deg)": 53.0,
        "Latitude(deg)": -29.17974616055018,
        "Longitude(deg)": 161.1878820781088,
        "Mean Anomaly(deg)": -37.37917325499868,
        "RAAN(deg)": 289.94967930248515,
        "Satellite Name": "Starlink Shell 1 1292",
        "Satellite Number": 1292,
        "Semi-Major Axis(m)": 6931778.249405717,
        "Time(s)": 970
    },
    {
        "Altitude(m)": 561994.5175487592,
        "Argument of Periapsis(deg)": 0.034160690992101214,
        "Eccentricity": 0.0,
        "Inclination(deg)": 53.0,
        "Latitude(deg)": -28.72300664914322,
        "Longitude(deg)": 161.63685451205149,
        "Mean Anomaly(deg)": -36.752342051441886,
        "RAAN(deg)": 289.9491605324077,
        "Satellite Name": "Starlink Shell 1 1292",
        "Satellite Number": 1292,
        "Semi-Major Axis(m)": 6931778.249405717,
        "Time(s)": 980
    },
    {
        "Altitude(m)": 561820.1974907838,
        "Argument of Periapsis(deg)": 0.034509269471612446,
        "Eccentricity": 0.0,
        "Inclination(deg)": 53.0,
        "Latitude(deg)": -28.26446088100349,
        "Longitude(deg)": 162.08159425568923,
        "Mean Anomaly(deg)": -36.12551084788514,
        "RAAN(deg)": 289.9486417623302,
        "Satellite Name": "Starlink Shell 1 1292",
        "Satellite Number": 1292,
        "Semi-Major Axis(m)": 6931778.249405717,
        "Time(s)": 990
    }
]